,dma_code,dma_name,zip_code,city,state
655,602,CHICAGO,60296,,
656,602,CHICAGO,60297,,
738,602,CHICAGO,60483,,
1348,504,PHILADELPHIA,8001,,
1349,504,PHILADELPHIA,8002,,
1350,504,PHILADELPHIA,8003,,
1351,504,PHILADELPHIA,8004,,
1352,504,PHILADELPHIA,8007,,
1353,504,PHILADELPHIA,8009,,
1354,504,PHILADELPHIA,8010,,
1355,504,PHILADELPHIA,8011,,
1356,504,PHILADELPHIA,8012,,
1357,504,PHILADELPHIA,8014,,
1358,504,PHILADELPHIA,8015,,
1359,504,PHILADELPHIA,8016,,
1360,504,PHILADELPHIA,8018,,
1361,504,PHILADELPHIA,8019,,
1362,504,PHILADELPHIA,8020,,
1363,504,PHILADELPHIA,8021,,
1364,504,PHILADELPHIA,8022,,
1365,504,PHILADELPHIA,8023,,
1366,504,PHILADELPHIA,8025,,
1367,504,PHILADELPHIA,8026,,
1368,504,PHILADELPHIA,8027,,
1369,504,PHILADELPHIA,8028,,
1370,504,PHILADELPHIA,8029,,
1371,504,PHILADELPHIA,8030,,
1372,504,PHILADELPHIA,8031,,
1373,504,PHILADELPHIA,8032,,
1374,504,PHILADELPHIA,8033,,
1375,504,PHILADELPHIA,8034,,
1376,504,PHILADELPHIA,8035,,
1377,504,PHILADELPHIA,8036,,
1378,504,PHILADELPHIA,8037,,
1379,504,PHILADELPHIA,8038,,
1380,504,PHILADELPHIA,8039,,
1381,504,PHILADELPHIA,8041,,
1382,504,PHILADELPHIA,8042,,
1383,504,PHILADELPHIA,8043,,
1384,504,PHILADELPHIA,8045,,
1385,504,PHILADELPHIA,8046,,
1386,504,PHILADELPHIA,8048,,
1387,504,PHILADELPHIA,8049,,
1388,504,PHILADELPHIA,8051,,
1389,504,PHILADELPHIA,8052,,
1390,504,PHILADELPHIA,8053,,
1391,504,PHILADELPHIA,8054,,
1392,504,PHILADELPHIA,8055,,
1393,504,PHILADELPHIA,8056,,
1394,504,PHILADELPHIA,8057,,
1395,504,PHILADELPHIA,8059,,
1396,504,PHILADELPHIA,8060,,
1397,504,PHILADELPHIA,8061,,
1398,504,PHILADELPHIA,8062,,
1399,504,PHILADELPHIA,8063,,
1400,504,PHILADELPHIA,8064,,
1401,504,PHILADELPHIA,8065,,
1402,504,PHILADELPHIA,8066,,
1403,504,PHILADELPHIA,8067,,
1404,504,PHILADELPHIA,8068,,
1405,504,PHILADELPHIA,8069,,
1406,504,PHILADELPHIA,8070,,
1407,504,PHILADELPHIA,8071,,
1408,504,PHILADELPHIA,8072,,
1409,504,PHILADELPHIA,8073,,
1410,504,PHILADELPHIA,8074,,
1411,504,PHILADELPHIA,8075,,
1412,504,PHILADELPHIA,8076,,
1413,504,PHILADELPHIA,8077,,
1414,504,PHILADELPHIA,8078,,
1415,504,PHILADELPHIA,8079,,
1416,504,PHILADELPHIA,8080,,
1417,504,PHILADELPHIA,8081,,
1418,504,PHILADELPHIA,8083,,
1419,504,PHILADELPHIA,8084,,
1420,504,PHILADELPHIA,8085,,
1421,504,PHILADELPHIA,8086,,
1422,504,PHILADELPHIA,8088,,
1423,504,PHILADELPHIA,8089,,
1424,504,PHILADELPHIA,8090,,
1425,504,PHILADELPHIA,8091,,
1426,504,PHILADELPHIA,8093,,
1427,504,PHILADELPHIA,8094,,
1428,504,PHILADELPHIA,8095,,
1429,504,PHILADELPHIA,8096,,
1430,504,PHILADELPHIA,8097,,
1431,504,PHILADELPHIA,8098,,
1432,504,PHILADELPHIA,8099,,
1433,504,PHILADELPHIA,8101,,
1434,504,PHILADELPHIA,8102,,
1435,504,PHILADELPHIA,8103,,
1436,504,PHILADELPHIA,8104,,
1437,504,PHILADELPHIA,8105,,
1438,504,PHILADELPHIA,8106,,
1439,504,PHILADELPHIA,8107,,
1440,504,PHILADELPHIA,8108,,
1441,504,PHILADELPHIA,8109,,
1442,504,PHILADELPHIA,8110,,
1443,504,PHILADELPHIA,8201,,
1444,504,PHILADELPHIA,8202,,
1445,504,PHILADELPHIA,8203,,
1446,504,PHILADELPHIA,8204,,
1447,504,PHILADELPHIA,8205,,
1448,504,PHILADELPHIA,8210,,
1449,504,PHILADELPHIA,8212,,
1450,504,PHILADELPHIA,8213,,
1451,504,PHILADELPHIA,8214,,
1452,504,PHILADELPHIA,8215,,
1453,504,PHILADELPHIA,8217,,
1454,504,PHILADELPHIA,8218,,
1455,504,PHILADELPHIA,8219,,
1456,504,PHILADELPHIA,8220,,
1457,504,PHILADELPHIA,8221,,
1458,504,PHILADELPHIA,8223,,
1459,504,PHILADELPHIA,8224,,
1460,504,PHILADELPHIA,8225,,
1461,504,PHILADELPHIA,8226,,
1462,504,PHILADELPHIA,8230,,
1463,504,PHILADELPHIA,8231,,
1464,504,PHILADELPHIA,8232,,
1465,504,PHILADELPHIA,8234,,
1466,504,PHILADELPHIA,8240,,
1467,504,PHILADELPHIA,8241,,
1468,504,PHILADELPHIA,8242,,
1469,504,PHILADELPHIA,8243,,
1470,504,PHILADELPHIA,8244,,
1471,504,PHILADELPHIA,8245,,
1472,504,PHILADELPHIA,8246,,
1473,504,PHILADELPHIA,8247,,
1474,504,PHILADELPHIA,8248,,
1475,504,PHILADELPHIA,8250,,
1476,504,PHILADELPHIA,8251,,
1477,504,PHILADELPHIA,8252,,
1478,504,PHILADELPHIA,8260,,
1479,504,PHILADELPHIA,8270,,
1480,504,PHILADELPHIA,8302,,
1481,504,PHILADELPHIA,8310,,
1482,504,PHILADELPHIA,8311,,
1483,504,PHILADELPHIA,8312,,
1484,504,PHILADELPHIA,8313,,
1485,504,PHILADELPHIA,8314,,
1486,504,PHILADELPHIA,8315,,
1487,504,PHILADELPHIA,8316,,
1488,504,PHILADELPHIA,8317,,
1489,504,PHILADELPHIA,8318,,
1490,504,PHILADELPHIA,8319,,
1491,504,PHILADELPHIA,8320,,
1492,504,PHILADELPHIA,8321,,
1493,504,PHILADELPHIA,8322,,
1494,504,PHILADELPHIA,8323,,
1495,504,PHILADELPHIA,8324,,
1496,504,PHILADELPHIA,8326,,
1497,504,PHILADELPHIA,8327,,
1498,504,PHILADELPHIA,8328,,
1499,504,PHILADELPHIA,8329,,
1500,504,PHILADELPHIA,8330,,
1501,504,PHILADELPHIA,8332,,
1502,504,PHILADELPHIA,8340,,
1503,504,PHILADELPHIA,8341,,
1504,504,PHILADELPHIA,8342,,
1505,504,PHILADELPHIA,8343,,
1506,504,PHILADELPHIA,8344,,
1507,504,PHILADELPHIA,8345,,
1508,504,PHILADELPHIA,8346,,
1509,504,PHILADELPHIA,8347,,
1510,504,PHILADELPHIA,8348,,
1511,504,PHILADELPHIA,8349,,
1512,504,PHILADELPHIA,8350,,
1513,504,PHILADELPHIA,8352,,
1514,504,PHILADELPHIA,8353,,
1515,504,PHILADELPHIA,8360,,
1516,504,PHILADELPHIA,8361,,
1517,504,PHILADELPHIA,8362,,
1518,504,PHILADELPHIA,8401,,
1519,504,PHILADELPHIA,8402,,
1520,504,PHILADELPHIA,8403,,
1521,504,PHILADELPHIA,8404,,
1522,504,PHILADELPHIA,8405,,
1523,504,PHILADELPHIA,8406,,
1524,504,PHILADELPHIA,8505,,
1525,504,PHILADELPHIA,8511,,
1526,504,PHILADELPHIA,8515,,
1527,504,PHILADELPHIA,8518,,
1528,504,PHILADELPHIA,8520,,
1529,504,PHILADELPHIA,8525,,
1530,504,PHILADELPHIA,8534,,
1531,504,PHILADELPHIA,8540,,
1532,504,PHILADELPHIA,8541,,
1533,504,PHILADELPHIA,8542,,
1534,504,PHILADELPHIA,8543,,
1535,504,PHILADELPHIA,8544,,
1536,504,PHILADELPHIA,8550,,
1537,504,PHILADELPHIA,8554,,
1538,504,PHILADELPHIA,8560,,
1539,504,PHILADELPHIA,8561,,
1540,504,PHILADELPHIA,8562,,
1541,504,PHILADELPHIA,8601,,
1542,504,PHILADELPHIA,8602,,
1543,504,PHILADELPHIA,8603,,
1544,504,PHILADELPHIA,8604,,
1545,504,PHILADELPHIA,8605,,
1546,504,PHILADELPHIA,8606,,
1547,504,PHILADELPHIA,8607,,
1548,504,PHILADELPHIA,8608,,
1549,504,PHILADELPHIA,8609,,
1550,504,PHILADELPHIA,8610,,
1551,504,PHILADELPHIA,8611,,
1552,504,PHILADELPHIA,8618,,
1553,504,PHILADELPHIA,8619,,
1554,504,PHILADELPHIA,8620,,
1555,504,PHILADELPHIA,8625,,
1556,504,PHILADELPHIA,8628,,
1557,504,PHILADELPHIA,8629,,
1558,504,PHILADELPHIA,8638,,
1559,504,PHILADELPHIA,8640,,
1560,504,PHILADELPHIA,8641,,
1561,504,PHILADELPHIA,8645,,
1562,504,PHILADELPHIA,8646,,
1563,504,PHILADELPHIA,8647,,
1564,504,PHILADELPHIA,8648,,
1565,504,PHILADELPHIA,8650,,
1566,504,PHILADELPHIA,8666,,
1567,504,PHILADELPHIA,8677,,
1568,504,PHILADELPHIA,8690,,
1569,504,PHILADELPHIA,8691,,
1570,504,PHILADELPHIA,8695,,
4892,533,HARTFORD & NEW HAVEN,6001,,
4893,533,HARTFORD & NEW HAVEN,6002,,
4894,533,HARTFORD & NEW HAVEN,6006,,
4895,533,HARTFORD & NEW HAVEN,6010,,
4896,533,HARTFORD & NEW HAVEN,6011,,
4897,533,HARTFORD & NEW HAVEN,6013,,
4898,533,HARTFORD & NEW HAVEN,6016,,
4899,533,HARTFORD & NEW HAVEN,6018,,
4900,533,HARTFORD & NEW HAVEN,6019,,
4901,533,HARTFORD & NEW HAVEN,6020,,
4902,533,HARTFORD & NEW HAVEN,6021,,
4903,533,HARTFORD & NEW HAVEN,6022,,
4904,533,HARTFORD & NEW HAVEN,6023,,
4905,533,HARTFORD & NEW HAVEN,6024,,
4906,533,HARTFORD & NEW HAVEN,6025,,
4907,533,HARTFORD & NEW HAVEN,6026,,
4908,533,HARTFORD & NEW HAVEN,6027,,
4909,533,HARTFORD & NEW HAVEN,6028,,
4910,533,HARTFORD & NEW HAVEN,6029,,
4911,533,HARTFORD & NEW HAVEN,6030,,
4912,533,HARTFORD & NEW HAVEN,6031,,
4913,533,HARTFORD & NEW HAVEN,6032,,
4914,533,HARTFORD & NEW HAVEN,6033,,
4915,533,HARTFORD & NEW HAVEN,6034,,
4916,533,HARTFORD & NEW HAVEN,6035,,
4917,533,HARTFORD & NEW HAVEN,6037,,
4918,533,HARTFORD & NEW HAVEN,6039,,
4919,533,HARTFORD & NEW HAVEN,6040,,
4920,533,HARTFORD & NEW HAVEN,6041,,
4921,533,HARTFORD & NEW HAVEN,6042,,
4922,533,HARTFORD & NEW HAVEN,6043,,
4923,533,HARTFORD & NEW HAVEN,6045,,
4924,533,HARTFORD & NEW HAVEN,6050,,
4925,533,HARTFORD & NEW HAVEN,6051,,
4926,533,HARTFORD & NEW HAVEN,6052,,
4927,533,HARTFORD & NEW HAVEN,6053,,
4928,533,HARTFORD & NEW HAVEN,6057,,
4929,533,HARTFORD & NEW HAVEN,6058,,
4930,533,HARTFORD & NEW HAVEN,6059,,
4931,533,HARTFORD & NEW HAVEN,6060,,
4932,533,HARTFORD & NEW HAVEN,6061,,
4933,533,HARTFORD & NEW HAVEN,6062,,
4934,533,HARTFORD & NEW HAVEN,6063,,
4935,533,HARTFORD & NEW HAVEN,6064,,
4936,533,HARTFORD & NEW HAVEN,6065,,
4937,533,HARTFORD & NEW HAVEN,6066,,
4938,533,HARTFORD & NEW HAVEN,6067,,
4939,533,HARTFORD & NEW HAVEN,6068,,
4940,533,HARTFORD & NEW HAVEN,6069,,
4941,533,HARTFORD & NEW HAVEN,6070,,
4942,533,HARTFORD & NEW HAVEN,6071,,
4943,533,HARTFORD & NEW HAVEN,6072,,
4944,533,HARTFORD & NEW HAVEN,6073,,
4945,533,HARTFORD & NEW HAVEN,6074,,
4946,533,HARTFORD & NEW HAVEN,6075,,
4947,533,HARTFORD & NEW HAVEN,6076,,
4948,533,HARTFORD & NEW HAVEN,6077,,
4949,533,HARTFORD & NEW HAVEN,6078,,
4950,533,HARTFORD & NEW HAVEN,6079,,
4951,533,HARTFORD & NEW HAVEN,6080,,
4952,533,HARTFORD & NEW HAVEN,6081,,
4953,533,HARTFORD & NEW HAVEN,6082,,
4954,533,HARTFORD & NEW HAVEN,6083,,
4955,533,HARTFORD & NEW HAVEN,6084,,
4956,533,HARTFORD & NEW HAVEN,6085,,
4957,533,HARTFORD & NEW HAVEN,6087,,
4958,533,HARTFORD & NEW HAVEN,6088,,
4959,533,HARTFORD & NEW HAVEN,6089,,
4960,533,HARTFORD & NEW HAVEN,6090,,
4961,533,HARTFORD & NEW HAVEN,6091,,
4962,533,HARTFORD & NEW HAVEN,6092,,
4963,533,HARTFORD & NEW HAVEN,6093,,
4964,533,HARTFORD & NEW HAVEN,6094,,
4965,533,HARTFORD & NEW HAVEN,6095,,
4966,533,HARTFORD & NEW HAVEN,6096,,
4967,533,HARTFORD & NEW HAVEN,6098,,
4968,533,HARTFORD & NEW HAVEN,6101,,
4969,533,HARTFORD & NEW HAVEN,6102,,
4970,533,HARTFORD & NEW HAVEN,6103,,
4971,533,HARTFORD & NEW HAVEN,6105,,
4972,533,HARTFORD & NEW HAVEN,6106,,
4973,533,HARTFORD & NEW HAVEN,6107,,
4974,533,HARTFORD & NEW HAVEN,6108,,
4975,533,HARTFORD & NEW HAVEN,6109,,
4976,533,HARTFORD & NEW HAVEN,6110,,
4977,533,HARTFORD & NEW HAVEN,6111,,
4978,533,HARTFORD & NEW HAVEN,6112,,
4979,533,HARTFORD & NEW HAVEN,6114,,
4980,533,HARTFORD & NEW HAVEN,6115,,
4981,533,HARTFORD & NEW HAVEN,6117,,
4982,533,HARTFORD & NEW HAVEN,6118,,
4983,533,HARTFORD & NEW HAVEN,6119,,
4984,533,HARTFORD & NEW HAVEN,6120,,
4985,533,HARTFORD & NEW HAVEN,6123,,
4986,533,HARTFORD & NEW HAVEN,6126,,
4987,533,HARTFORD & NEW HAVEN,6127,,
4988,533,HARTFORD & NEW HAVEN,6128,,
4989,533,HARTFORD & NEW HAVEN,6129,,
4990,533,HARTFORD & NEW HAVEN,6131,,
4991,533,HARTFORD & NEW HAVEN,6132,,
4992,533,HARTFORD & NEW HAVEN,6133,,
4993,533,HARTFORD & NEW HAVEN,6134,,
4994,533,HARTFORD & NEW HAVEN,6137,,
4995,533,HARTFORD & NEW HAVEN,6138,,
4996,533,HARTFORD & NEW HAVEN,6140,,
4997,533,HARTFORD & NEW HAVEN,6141,,
4998,533,HARTFORD & NEW HAVEN,6142,,
4999,533,HARTFORD & NEW HAVEN,6143,,
5000,533,HARTFORD & NEW HAVEN,6144,,
5001,533,HARTFORD & NEW HAVEN,6145,,
5002,533,HARTFORD & NEW HAVEN,6146,,
5003,533,HARTFORD & NEW HAVEN,6147,,
5004,533,HARTFORD & NEW HAVEN,6150,,
5005,533,HARTFORD & NEW HAVEN,6151,,
5006,533,HARTFORD & NEW HAVEN,6152,,
5007,533,HARTFORD & NEW HAVEN,6153,,
5008,533,HARTFORD & NEW HAVEN,6154,,
5009,533,HARTFORD & NEW HAVEN,6155,,
5010,533,HARTFORD & NEW HAVEN,6156,,
5011,533,HARTFORD & NEW HAVEN,6160,,
5012,533,HARTFORD & NEW HAVEN,6161,,
5013,533,HARTFORD & NEW HAVEN,6167,,
5014,533,HARTFORD & NEW HAVEN,6176,,
5015,533,HARTFORD & NEW HAVEN,6180,,
5016,533,HARTFORD & NEW HAVEN,6183,,
5017,533,HARTFORD & NEW HAVEN,6226,,
5018,533,HARTFORD & NEW HAVEN,6230,,
5019,533,HARTFORD & NEW HAVEN,6231,,
5020,533,HARTFORD & NEW HAVEN,6232,,
5021,533,HARTFORD & NEW HAVEN,6233,,
5022,533,HARTFORD & NEW HAVEN,6234,,
5023,533,HARTFORD & NEW HAVEN,6235,,
5024,533,HARTFORD & NEW HAVEN,6237,,
5025,533,HARTFORD & NEW HAVEN,6238,,
5026,533,HARTFORD & NEW HAVEN,6239,,
5027,533,HARTFORD & NEW HAVEN,6241,,
5028,533,HARTFORD & NEW HAVEN,6242,,
5029,533,HARTFORD & NEW HAVEN,6243,,
5030,533,HARTFORD & NEW HAVEN,6244,,
5031,533,HARTFORD & NEW HAVEN,6245,,
5032,533,HARTFORD & NEW HAVEN,6246,,
5033,533,HARTFORD & NEW HAVEN,6247,,
5034,533,HARTFORD & NEW HAVEN,6248,,
5035,533,HARTFORD & NEW HAVEN,6249,,
5036,533,HARTFORD & NEW HAVEN,6250,,
5037,533,HARTFORD & NEW HAVEN,6251,,
5038,533,HARTFORD & NEW HAVEN,6254,,
5039,533,HARTFORD & NEW HAVEN,6255,,
5040,533,HARTFORD & NEW HAVEN,6256,,
5041,533,HARTFORD & NEW HAVEN,6258,,
5042,533,HARTFORD & NEW HAVEN,6259,,
5043,533,HARTFORD & NEW HAVEN,6260,,
5044,533,HARTFORD & NEW HAVEN,6262,,
5045,533,HARTFORD & NEW HAVEN,6263,,
5046,533,HARTFORD & NEW HAVEN,6264,,
5047,533,HARTFORD & NEW HAVEN,6265,,
5048,533,HARTFORD & NEW HAVEN,6266,,
5049,533,HARTFORD & NEW HAVEN,6267,,
5050,533,HARTFORD & NEW HAVEN,6268,,
5051,533,HARTFORD & NEW HAVEN,6269,,
5052,533,HARTFORD & NEW HAVEN,6277,,
5053,533,HARTFORD & NEW HAVEN,6278,,
5054,533,HARTFORD & NEW HAVEN,6279,,
5055,533,HARTFORD & NEW HAVEN,6280,,
5056,533,HARTFORD & NEW HAVEN,6281,,
5057,533,HARTFORD & NEW HAVEN,6282,,
5058,533,HARTFORD & NEW HAVEN,6320,,
5059,533,HARTFORD & NEW HAVEN,6330,,
5060,533,HARTFORD & NEW HAVEN,6331,,
5061,533,HARTFORD & NEW HAVEN,6332,,
5062,533,HARTFORD & NEW HAVEN,6333,,
5063,533,HARTFORD & NEW HAVEN,6334,,
5064,533,HARTFORD & NEW HAVEN,6335,,
5065,533,HARTFORD & NEW HAVEN,6336,,
5066,533,HARTFORD & NEW HAVEN,6338,,
5067,533,HARTFORD & NEW HAVEN,6339,,
5068,533,HARTFORD & NEW HAVEN,6340,,
5069,533,HARTFORD & NEW HAVEN,6349,,
5070,533,HARTFORD & NEW HAVEN,6350,,
5071,533,HARTFORD & NEW HAVEN,6351,,
5072,533,HARTFORD & NEW HAVEN,6353,,
5073,533,HARTFORD & NEW HAVEN,6354,,
5074,533,HARTFORD & NEW HAVEN,6355,,
5075,533,HARTFORD & NEW HAVEN,6357,,
5076,533,HARTFORD & NEW HAVEN,6359,,
5077,533,HARTFORD & NEW HAVEN,6360,,
5078,533,HARTFORD & NEW HAVEN,6365,,
5079,533,HARTFORD & NEW HAVEN,6370,,
5080,533,HARTFORD & NEW HAVEN,6371,,
5081,533,HARTFORD & NEW HAVEN,6372,,
5082,533,HARTFORD & NEW HAVEN,6373,,
5083,533,HARTFORD & NEW HAVEN,6374,,
5084,533,HARTFORD & NEW HAVEN,6375,,
5085,533,HARTFORD & NEW HAVEN,6376,,
5086,533,HARTFORD & NEW HAVEN,6377,,
5087,533,HARTFORD & NEW HAVEN,6378,,
5088,533,HARTFORD & NEW HAVEN,6379,,
5089,533,HARTFORD & NEW HAVEN,6380,,
5090,533,HARTFORD & NEW HAVEN,6382,,
5091,533,HARTFORD & NEW HAVEN,6383,,
5092,533,HARTFORD & NEW HAVEN,6384,,
5093,533,HARTFORD & NEW HAVEN,6385,,
5094,533,HARTFORD & NEW HAVEN,6386,,
5095,533,HARTFORD & NEW HAVEN,6387,,
5096,533,HARTFORD & NEW HAVEN,6388,,
5097,533,HARTFORD & NEW HAVEN,6389,,
5098,533,HARTFORD & NEW HAVEN,6401,,
5099,533,HARTFORD & NEW HAVEN,6403,,
5100,533,HARTFORD & NEW HAVEN,6405,,
5101,533,HARTFORD & NEW HAVEN,6408,,
5102,533,HARTFORD & NEW HAVEN,6409,,
5103,533,HARTFORD & NEW HAVEN,6410,,
5104,533,HARTFORD & NEW HAVEN,6411,,
5105,533,HARTFORD & NEW HAVEN,6412,,
5106,533,HARTFORD & NEW HAVEN,6413,,
5107,533,HARTFORD & NEW HAVEN,6414,,
5108,533,HARTFORD & NEW HAVEN,6415,,
5109,533,HARTFORD & NEW HAVEN,6416,,
5110,533,HARTFORD & NEW HAVEN,6417,,
5111,533,HARTFORD & NEW HAVEN,6418,,
5112,533,HARTFORD & NEW HAVEN,6419,,
5113,533,HARTFORD & NEW HAVEN,6420,,
5114,533,HARTFORD & NEW HAVEN,6422,,
5115,533,HARTFORD & NEW HAVEN,6423,,
5116,533,HARTFORD & NEW HAVEN,6424,,
5117,533,HARTFORD & NEW HAVEN,6426,,
5118,533,HARTFORD & NEW HAVEN,6437,,
5119,533,HARTFORD & NEW HAVEN,6438,,
5120,533,HARTFORD & NEW HAVEN,6439,,
5121,533,HARTFORD & NEW HAVEN,6441,,
5122,533,HARTFORD & NEW HAVEN,6442,,
5123,533,HARTFORD & NEW HAVEN,6443,,
5124,533,HARTFORD & NEW HAVEN,6444,,
5125,533,HARTFORD & NEW HAVEN,6447,,
5126,533,HARTFORD & NEW HAVEN,6450,,
5127,533,HARTFORD & NEW HAVEN,6451,,
5128,533,HARTFORD & NEW HAVEN,6454,,
5129,533,HARTFORD & NEW HAVEN,6455,,
5130,533,HARTFORD & NEW HAVEN,6456,,
5131,533,HARTFORD & NEW HAVEN,6457,,
5132,533,HARTFORD & NEW HAVEN,6459,,
5133,533,HARTFORD & NEW HAVEN,6460,,
5134,533,HARTFORD & NEW HAVEN,6461,,
5135,533,HARTFORD & NEW HAVEN,6467,,
5136,533,HARTFORD & NEW HAVEN,6469,,
5137,533,HARTFORD & NEW HAVEN,6471,,
5138,533,HARTFORD & NEW HAVEN,6472,,
5139,533,HARTFORD & NEW HAVEN,6473,,
5140,533,HARTFORD & NEW HAVEN,6474,,
5141,533,HARTFORD & NEW HAVEN,6475,,
5142,533,HARTFORD & NEW HAVEN,6477,,
5143,533,HARTFORD & NEW HAVEN,6478,,
5144,533,HARTFORD & NEW HAVEN,6479,,
5145,533,HARTFORD & NEW HAVEN,6480,,
5146,533,HARTFORD & NEW HAVEN,6481,,
5147,533,HARTFORD & NEW HAVEN,6483,,
5148,533,HARTFORD & NEW HAVEN,6487,,
5149,533,HARTFORD & NEW HAVEN,6488,,
5150,533,HARTFORD & NEW HAVEN,6489,,
5151,533,HARTFORD & NEW HAVEN,6492,,
5152,533,HARTFORD & NEW HAVEN,6493,,
5153,533,HARTFORD & NEW HAVEN,6494,,
5154,533,HARTFORD & NEW HAVEN,6495,,
5155,533,HARTFORD & NEW HAVEN,6498,,
5156,533,HARTFORD & NEW HAVEN,6501,,
5157,533,HARTFORD & NEW HAVEN,6502,,
5158,533,HARTFORD & NEW HAVEN,6503,,
5159,533,HARTFORD & NEW HAVEN,6504,,
5160,533,HARTFORD & NEW HAVEN,6505,,
5161,533,HARTFORD & NEW HAVEN,6506,,
5162,533,HARTFORD & NEW HAVEN,6507,,
5163,533,HARTFORD & NEW HAVEN,6508,,
5164,533,HARTFORD & NEW HAVEN,6509,,
5165,533,HARTFORD & NEW HAVEN,6510,,
5166,533,HARTFORD & NEW HAVEN,6511,,
5167,533,HARTFORD & NEW HAVEN,6512,,
5168,533,HARTFORD & NEW HAVEN,6513,,
5169,533,HARTFORD & NEW HAVEN,6514,,
5170,533,HARTFORD & NEW HAVEN,6515,,
5171,533,HARTFORD & NEW HAVEN,6516,,
5172,533,HARTFORD & NEW HAVEN,6517,,
5173,533,HARTFORD & NEW HAVEN,6518,,
5174,533,HARTFORD & NEW HAVEN,6519,,
5175,533,HARTFORD & NEW HAVEN,6520,,
5176,533,HARTFORD & NEW HAVEN,6521,,
5177,533,HARTFORD & NEW HAVEN,6524,,
5178,533,HARTFORD & NEW HAVEN,6525,,
5179,533,HARTFORD & NEW HAVEN,6530,,
5180,533,HARTFORD & NEW HAVEN,6531,,
5181,533,HARTFORD & NEW HAVEN,6532,,
5182,533,HARTFORD & NEW HAVEN,6533,,
5183,533,HARTFORD & NEW HAVEN,6534,,
5184,533,HARTFORD & NEW HAVEN,6535,,
5185,533,HARTFORD & NEW HAVEN,6536,,
5186,533,HARTFORD & NEW HAVEN,6537,,
5187,533,HARTFORD & NEW HAVEN,6540,,
5188,533,HARTFORD & NEW HAVEN,6701,,
5189,533,HARTFORD & NEW HAVEN,6702,,
5190,533,HARTFORD & NEW HAVEN,6703,,
5191,533,HARTFORD & NEW HAVEN,6704,,
5192,533,HARTFORD & NEW HAVEN,6705,,
5193,533,HARTFORD & NEW HAVEN,6706,,
5194,533,HARTFORD & NEW HAVEN,6708,,
5195,533,HARTFORD & NEW HAVEN,6710,,
5196,533,HARTFORD & NEW HAVEN,6712,,
5197,533,HARTFORD & NEW HAVEN,6716,,
5198,533,HARTFORD & NEW HAVEN,6720,,
5199,533,HARTFORD & NEW HAVEN,6721,,
5200,533,HARTFORD & NEW HAVEN,6722,,
5201,533,HARTFORD & NEW HAVEN,6723,,
5202,533,HARTFORD & NEW HAVEN,6724,,
5203,533,HARTFORD & NEW HAVEN,6725,,
5204,533,HARTFORD & NEW HAVEN,6749,,
5205,533,HARTFORD & NEW HAVEN,6750,,
5206,533,HARTFORD & NEW HAVEN,6751,,
5207,533,HARTFORD & NEW HAVEN,6752,,
5208,533,HARTFORD & NEW HAVEN,6753,,
5209,533,HARTFORD & NEW HAVEN,6754,,
5210,533,HARTFORD & NEW HAVEN,6755,,
5211,533,HARTFORD & NEW HAVEN,6756,,
5212,533,HARTFORD & NEW HAVEN,6757,,
5213,533,HARTFORD & NEW HAVEN,6758,,
5214,533,HARTFORD & NEW HAVEN,6759,,
5215,533,HARTFORD & NEW HAVEN,6762,,
5216,533,HARTFORD & NEW HAVEN,6763,,
5217,533,HARTFORD & NEW HAVEN,6770,,
5218,533,HARTFORD & NEW HAVEN,6776,,
5219,533,HARTFORD & NEW HAVEN,6777,,
5220,533,HARTFORD & NEW HAVEN,6778,,
5221,533,HARTFORD & NEW HAVEN,6779,,
5222,533,HARTFORD & NEW HAVEN,6781,,
5223,533,HARTFORD & NEW HAVEN,6782,,
5224,533,HARTFORD & NEW HAVEN,6783,,
5225,533,HARTFORD & NEW HAVEN,6785,,
5226,533,HARTFORD & NEW HAVEN,6786,,
5227,533,HARTFORD & NEW HAVEN,6787,,
5228,533,HARTFORD & NEW HAVEN,6790,,
5229,533,HARTFORD & NEW HAVEN,6791,,
5230,533,HARTFORD & NEW HAVEN,6792,,
5231,533,HARTFORD & NEW HAVEN,6793,,
5232,533,HARTFORD & NEW HAVEN,6794,,
5233,533,HARTFORD & NEW HAVEN,6795,,
5234,533,HARTFORD & NEW HAVEN,6796,,
5235,533,HARTFORD & NEW HAVEN,6798,,
7024,679,DES MOINES - AMES,50350,,
8403,523,BURLINGTON - PLATTSBURGH,3215,,
8404,523,BURLINGTON - PLATTSBURGH,3217,,
8405,523,BURLINGTON - PLATTSBURGH,3222,,
8406,523,BURLINGTON - PLATTSBURGH,3223,,
8407,523,BURLINGTON - PLATTSBURGH,3238,,
8408,523,BURLINGTON - PLATTSBURGH,3240,,
8409,523,BURLINGTON - PLATTSBURGH,3241,,
8410,523,BURLINGTON - PLATTSBURGH,3245,,
8411,523,BURLINGTON - PLATTSBURGH,3251,,
8412,523,BURLINGTON - PLATTSBURGH,3262,,
8413,523,BURLINGTON - PLATTSBURGH,3264,,
8414,523,BURLINGTON - PLATTSBURGH,3266,,
8415,523,BURLINGTON - PLATTSBURGH,3274,,
8416,523,BURLINGTON - PLATTSBURGH,3279,,
8417,523,BURLINGTON - PLATTSBURGH,3280,,
8418,523,BURLINGTON - PLATTSBURGH,3282,,
8419,523,BURLINGTON - PLATTSBURGH,3284,,
8420,523,BURLINGTON - PLATTSBURGH,3285,,
8421,523,BURLINGTON - PLATTSBURGH,3293,,
8422,523,BURLINGTON - PLATTSBURGH,3561,,
8423,523,BURLINGTON - PLATTSBURGH,3574,,
8424,523,BURLINGTON - PLATTSBURGH,3580,,
8425,523,BURLINGTON - PLATTSBURGH,3585,,
8426,523,BURLINGTON - PLATTSBURGH,3586,,
8427,523,BURLINGTON - PLATTSBURGH,3601,,
8428,523,BURLINGTON - PLATTSBURGH,3603,,
8429,523,BURLINGTON - PLATTSBURGH,3605,,
8430,523,BURLINGTON - PLATTSBURGH,3607,,
8431,523,BURLINGTON - PLATTSBURGH,3740,,
8432,523,BURLINGTON - PLATTSBURGH,3741,,
8433,523,BURLINGTON - PLATTSBURGH,3743,,
8434,523,BURLINGTON - PLATTSBURGH,3745,,
8435,523,BURLINGTON - PLATTSBURGH,3746,,
8436,523,BURLINGTON - PLATTSBURGH,3748,,
8437,523,BURLINGTON - PLATTSBURGH,3749,,
8438,523,BURLINGTON - PLATTSBURGH,3750,,
8439,523,BURLINGTON - PLATTSBURGH,3751,,
8440,523,BURLINGTON - PLATTSBURGH,3752,,
8441,523,BURLINGTON - PLATTSBURGH,3753,,
8442,523,BURLINGTON - PLATTSBURGH,3754,,
8443,523,BURLINGTON - PLATTSBURGH,3755,,
8444,523,BURLINGTON - PLATTSBURGH,3756,,
8445,523,BURLINGTON - PLATTSBURGH,3765,,
8446,523,BURLINGTON - PLATTSBURGH,3766,,
8447,523,BURLINGTON - PLATTSBURGH,3768,,
8448,523,BURLINGTON - PLATTSBURGH,3769,,
8449,523,BURLINGTON - PLATTSBURGH,3770,,
8450,523,BURLINGTON - PLATTSBURGH,3771,,
8451,523,BURLINGTON - PLATTSBURGH,3773,,
8452,523,BURLINGTON - PLATTSBURGH,3774,,
8453,523,BURLINGTON - PLATTSBURGH,3777,,
8454,523,BURLINGTON - PLATTSBURGH,3779,,
8455,523,BURLINGTON - PLATTSBURGH,3780,,
8456,523,BURLINGTON - PLATTSBURGH,3781,,
8457,523,BURLINGTON - PLATTSBURGH,3782,,
8458,523,BURLINGTON - PLATTSBURGH,3784,,
8459,523,BURLINGTON - PLATTSBURGH,3785,,
8460,523,BURLINGTON - PLATTSBURGH,5001,,
8461,523,BURLINGTON - PLATTSBURGH,5009,,
8462,523,BURLINGTON - PLATTSBURGH,5030,,
8463,523,BURLINGTON - PLATTSBURGH,5031,,
8464,523,BURLINGTON - PLATTSBURGH,5032,,
8465,523,BURLINGTON - PLATTSBURGH,5033,,
8466,523,BURLINGTON - PLATTSBURGH,5034,,
8467,523,BURLINGTON - PLATTSBURGH,5035,,
8468,523,BURLINGTON - PLATTSBURGH,5036,,
8469,523,BURLINGTON - PLATTSBURGH,5037,,
8470,523,BURLINGTON - PLATTSBURGH,5038,,
8471,523,BURLINGTON - PLATTSBURGH,5039,,
8472,523,BURLINGTON - PLATTSBURGH,5040,,
8473,523,BURLINGTON - PLATTSBURGH,5041,,
8474,523,BURLINGTON - PLATTSBURGH,5042,,
8475,523,BURLINGTON - PLATTSBURGH,5043,,
8476,523,BURLINGTON - PLATTSBURGH,5045,,
8477,523,BURLINGTON - PLATTSBURGH,5046,,
8478,523,BURLINGTON - PLATTSBURGH,5047,,
8479,523,BURLINGTON - PLATTSBURGH,5048,,
8480,523,BURLINGTON - PLATTSBURGH,5049,,
8481,523,BURLINGTON - PLATTSBURGH,5050,,
8482,523,BURLINGTON - PLATTSBURGH,5051,,
8483,523,BURLINGTON - PLATTSBURGH,5052,,
8484,523,BURLINGTON - PLATTSBURGH,5053,,
8485,523,BURLINGTON - PLATTSBURGH,5054,,
8486,523,BURLINGTON - PLATTSBURGH,5055,,
8487,523,BURLINGTON - PLATTSBURGH,5056,,
8488,523,BURLINGTON - PLATTSBURGH,5058,,
8489,523,BURLINGTON - PLATTSBURGH,5059,,
8490,523,BURLINGTON - PLATTSBURGH,5060,,
8491,523,BURLINGTON - PLATTSBURGH,5061,,
8492,523,BURLINGTON - PLATTSBURGH,5062,,
8493,523,BURLINGTON - PLATTSBURGH,5065,,
8494,523,BURLINGTON - PLATTSBURGH,5067,,
8495,523,BURLINGTON - PLATTSBURGH,5068,,
8496,523,BURLINGTON - PLATTSBURGH,5069,,
8497,523,BURLINGTON - PLATTSBURGH,5070,,
8498,523,BURLINGTON - PLATTSBURGH,5071,,
8499,523,BURLINGTON - PLATTSBURGH,5072,,
8500,523,BURLINGTON - PLATTSBURGH,5073,,
8501,523,BURLINGTON - PLATTSBURGH,5074,,
8502,523,BURLINGTON - PLATTSBURGH,5075,,
8503,523,BURLINGTON - PLATTSBURGH,5076,,
8504,523,BURLINGTON - PLATTSBURGH,5077,,
8505,523,BURLINGTON - PLATTSBURGH,5079,,
8506,523,BURLINGTON - PLATTSBURGH,5081,,
8507,523,BURLINGTON - PLATTSBURGH,5083,,
8508,523,BURLINGTON - PLATTSBURGH,5084,,
8509,523,BURLINGTON - PLATTSBURGH,5085,,
8510,523,BURLINGTON - PLATTSBURGH,5086,,
8511,523,BURLINGTON - PLATTSBURGH,5088,,
8512,523,BURLINGTON - PLATTSBURGH,5089,,
8513,523,BURLINGTON - PLATTSBURGH,5091,,
8514,523,BURLINGTON - PLATTSBURGH,5142,,
8515,523,BURLINGTON - PLATTSBURGH,5143,,
8516,523,BURLINGTON - PLATTSBURGH,5144,,
8517,523,BURLINGTON - PLATTSBURGH,5149,,
8518,523,BURLINGTON - PLATTSBURGH,5150,,
8519,523,BURLINGTON - PLATTSBURGH,5151,,
8520,523,BURLINGTON - PLATTSBURGH,5153,,
8521,523,BURLINGTON - PLATTSBURGH,5156,,
8522,523,BURLINGTON - PLATTSBURGH,5161,,
8523,523,BURLINGTON - PLATTSBURGH,5401,,
8524,523,BURLINGTON - PLATTSBURGH,5402,,
8525,523,BURLINGTON - PLATTSBURGH,5403,,
8526,523,BURLINGTON - PLATTSBURGH,5404,,
8527,523,BURLINGTON - PLATTSBURGH,5405,,
8528,523,BURLINGTON - PLATTSBURGH,5406,,
8529,523,BURLINGTON - PLATTSBURGH,5407,,
8530,523,BURLINGTON - PLATTSBURGH,5408,,
8531,523,BURLINGTON - PLATTSBURGH,5439,,
8532,523,BURLINGTON - PLATTSBURGH,5440,,
8533,523,BURLINGTON - PLATTSBURGH,5441,,
8534,523,BURLINGTON - PLATTSBURGH,5442,,
8535,523,BURLINGTON - PLATTSBURGH,5443,,
8536,523,BURLINGTON - PLATTSBURGH,5444,,
8537,523,BURLINGTON - PLATTSBURGH,5445,,
8538,523,BURLINGTON - PLATTSBURGH,5446,,
8539,523,BURLINGTON - PLATTSBURGH,5447,,
8540,523,BURLINGTON - PLATTSBURGH,5448,,
8541,523,BURLINGTON - PLATTSBURGH,5449,,
8542,523,BURLINGTON - PLATTSBURGH,5450,,
8543,523,BURLINGTON - PLATTSBURGH,5451,,
8544,523,BURLINGTON - PLATTSBURGH,5452,,
8545,523,BURLINGTON - PLATTSBURGH,5453,,
8546,523,BURLINGTON - PLATTSBURGH,5454,,
8547,523,BURLINGTON - PLATTSBURGH,5455,,
8548,523,BURLINGTON - PLATTSBURGH,5456,,
8549,523,BURLINGTON - PLATTSBURGH,5457,,
8550,523,BURLINGTON - PLATTSBURGH,5458,,
8551,523,BURLINGTON - PLATTSBURGH,5459,,
8552,523,BURLINGTON - PLATTSBURGH,5460,,
8553,523,BURLINGTON - PLATTSBURGH,5461,,
8554,523,BURLINGTON - PLATTSBURGH,5462,,
8555,523,BURLINGTON - PLATTSBURGH,5463,,
8556,523,BURLINGTON - PLATTSBURGH,5464,,
8557,523,BURLINGTON - PLATTSBURGH,5465,,
8558,523,BURLINGTON - PLATTSBURGH,5466,,
8559,523,BURLINGTON - PLATTSBURGH,5468,,
8560,523,BURLINGTON - PLATTSBURGH,5469,,
8561,523,BURLINGTON - PLATTSBURGH,5470,,
8562,523,BURLINGTON - PLATTSBURGH,5471,,
8563,523,BURLINGTON - PLATTSBURGH,5472,,
8564,523,BURLINGTON - PLATTSBURGH,5473,,
8565,523,BURLINGTON - PLATTSBURGH,5474,,
8566,523,BURLINGTON - PLATTSBURGH,5476,,
8567,523,BURLINGTON - PLATTSBURGH,5477,,
8568,523,BURLINGTON - PLATTSBURGH,5478,,
8569,523,BURLINGTON - PLATTSBURGH,5479,,
8570,523,BURLINGTON - PLATTSBURGH,5481,,
8571,523,BURLINGTON - PLATTSBURGH,5482,,
8572,523,BURLINGTON - PLATTSBURGH,5483,,
8573,523,BURLINGTON - PLATTSBURGH,5485,,
8574,523,BURLINGTON - PLATTSBURGH,5486,,
8575,523,BURLINGTON - PLATTSBURGH,5487,,
8576,523,BURLINGTON - PLATTSBURGH,5488,,
8577,523,BURLINGTON - PLATTSBURGH,5489,,
8578,523,BURLINGTON - PLATTSBURGH,5490,,
8579,523,BURLINGTON - PLATTSBURGH,5491,,
8580,523,BURLINGTON - PLATTSBURGH,5492,,
8581,523,BURLINGTON - PLATTSBURGH,5494,,
8582,523,BURLINGTON - PLATTSBURGH,5495,,
8583,523,BURLINGTON - PLATTSBURGH,5601,,
8584,523,BURLINGTON - PLATTSBURGH,5602,,
8585,523,BURLINGTON - PLATTSBURGH,5603,,
8586,523,BURLINGTON - PLATTSBURGH,5604,,
8587,523,BURLINGTON - PLATTSBURGH,5609,,
8588,523,BURLINGTON - PLATTSBURGH,5620,,
8589,523,BURLINGTON - PLATTSBURGH,5633,,
8590,523,BURLINGTON - PLATTSBURGH,5640,,
8591,523,BURLINGTON - PLATTSBURGH,5641,,
8592,523,BURLINGTON - PLATTSBURGH,5647,,
8593,523,BURLINGTON - PLATTSBURGH,5648,,
8594,523,BURLINGTON - PLATTSBURGH,5649,,
8595,523,BURLINGTON - PLATTSBURGH,5650,,
8596,523,BURLINGTON - PLATTSBURGH,5651,,
8597,523,BURLINGTON - PLATTSBURGH,5652,,
8598,523,BURLINGTON - PLATTSBURGH,5653,,
8599,523,BURLINGTON - PLATTSBURGH,5654,,
8600,523,BURLINGTON - PLATTSBURGH,5655,,
8601,523,BURLINGTON - PLATTSBURGH,5656,,
8602,523,BURLINGTON - PLATTSBURGH,5657,,
8603,523,BURLINGTON - PLATTSBURGH,5658,,
8604,523,BURLINGTON - PLATTSBURGH,5660,,
8605,523,BURLINGTON - PLATTSBURGH,5661,,
8606,523,BURLINGTON - PLATTSBURGH,5662,,
8607,523,BURLINGTON - PLATTSBURGH,5663,,
8608,523,BURLINGTON - PLATTSBURGH,5664,,
8609,523,BURLINGTON - PLATTSBURGH,5665,,
8610,523,BURLINGTON - PLATTSBURGH,5666,,
8611,523,BURLINGTON - PLATTSBURGH,5667,,
8612,523,BURLINGTON - PLATTSBURGH,5669,,
8613,523,BURLINGTON - PLATTSBURGH,5670,,
8614,523,BURLINGTON - PLATTSBURGH,5671,,
8615,523,BURLINGTON - PLATTSBURGH,5672,,
8616,523,BURLINGTON - PLATTSBURGH,5673,,
8617,523,BURLINGTON - PLATTSBURGH,5674,,
8618,523,BURLINGTON - PLATTSBURGH,5675,,
8619,523,BURLINGTON - PLATTSBURGH,5676,,
8620,523,BURLINGTON - PLATTSBURGH,5677,,
8621,523,BURLINGTON - PLATTSBURGH,5678,,
8622,523,BURLINGTON - PLATTSBURGH,5679,,
8623,523,BURLINGTON - PLATTSBURGH,5680,,
8624,523,BURLINGTON - PLATTSBURGH,5681,,
8625,523,BURLINGTON - PLATTSBURGH,5682,,
8626,523,BURLINGTON - PLATTSBURGH,5701,,
8627,523,BURLINGTON - PLATTSBURGH,5702,,
8628,523,BURLINGTON - PLATTSBURGH,5730,,
8629,523,BURLINGTON - PLATTSBURGH,5731,,
8630,523,BURLINGTON - PLATTSBURGH,5732,,
8631,523,BURLINGTON - PLATTSBURGH,5733,,
8632,523,BURLINGTON - PLATTSBURGH,5734,,
8633,523,BURLINGTON - PLATTSBURGH,5735,,
8634,523,BURLINGTON - PLATTSBURGH,5736,,
8635,523,BURLINGTON - PLATTSBURGH,5737,,
8636,523,BURLINGTON - PLATTSBURGH,5738,,
8637,523,BURLINGTON - PLATTSBURGH,5739,,
8638,523,BURLINGTON - PLATTSBURGH,5740,,
8639,523,BURLINGTON - PLATTSBURGH,5741,,
8640,523,BURLINGTON - PLATTSBURGH,5742,,
8641,523,BURLINGTON - PLATTSBURGH,5743,,
8642,523,BURLINGTON - PLATTSBURGH,5744,,
8643,523,BURLINGTON - PLATTSBURGH,5745,,
8644,523,BURLINGTON - PLATTSBURGH,5746,,
8645,523,BURLINGTON - PLATTSBURGH,5747,,
8646,523,BURLINGTON - PLATTSBURGH,5748,,
8647,523,BURLINGTON - PLATTSBURGH,5750,,
8648,523,BURLINGTON - PLATTSBURGH,5751,,
8649,523,BURLINGTON - PLATTSBURGH,5753,,
8650,523,BURLINGTON - PLATTSBURGH,5757,,
8651,523,BURLINGTON - PLATTSBURGH,5758,,
8652,523,BURLINGTON - PLATTSBURGH,5759,,
8653,523,BURLINGTON - PLATTSBURGH,5760,,
8654,523,BURLINGTON - PLATTSBURGH,5761,,
8655,523,BURLINGTON - PLATTSBURGH,5762,,
8656,523,BURLINGTON - PLATTSBURGH,5763,,
8657,523,BURLINGTON - PLATTSBURGH,5764,,
8658,523,BURLINGTON - PLATTSBURGH,5765,,
8659,523,BURLINGTON - PLATTSBURGH,5766,,
8660,523,BURLINGTON - PLATTSBURGH,5767,,
8661,523,BURLINGTON - PLATTSBURGH,5769,,
8662,523,BURLINGTON - PLATTSBURGH,5770,,
8663,523,BURLINGTON - PLATTSBURGH,5772,,
8664,523,BURLINGTON - PLATTSBURGH,5773,,
8665,523,BURLINGTON - PLATTSBURGH,5774,,
8666,523,BURLINGTON - PLATTSBURGH,5775,,
8667,523,BURLINGTON - PLATTSBURGH,5777,,
8668,523,BURLINGTON - PLATTSBURGH,5778,,
8669,523,BURLINGTON - PLATTSBURGH,5819,,
8670,523,BURLINGTON - PLATTSBURGH,5820,,
8671,523,BURLINGTON - PLATTSBURGH,5821,,
8672,523,BURLINGTON - PLATTSBURGH,5822,,
8673,523,BURLINGTON - PLATTSBURGH,5823,,
8674,523,BURLINGTON - PLATTSBURGH,5824,,
8675,523,BURLINGTON - PLATTSBURGH,5825,,
8676,523,BURLINGTON - PLATTSBURGH,5826,,
8677,523,BURLINGTON - PLATTSBURGH,5827,,
8678,523,BURLINGTON - PLATTSBURGH,5828,,
8679,523,BURLINGTON - PLATTSBURGH,5829,,
8680,523,BURLINGTON - PLATTSBURGH,5830,,
8681,523,BURLINGTON - PLATTSBURGH,5832,,
8682,523,BURLINGTON - PLATTSBURGH,5833,,
8683,523,BURLINGTON - PLATTSBURGH,5836,,
8684,523,BURLINGTON - PLATTSBURGH,5837,,
8685,523,BURLINGTON - PLATTSBURGH,5838,,
8686,523,BURLINGTON - PLATTSBURGH,5839,,
8687,523,BURLINGTON - PLATTSBURGH,5840,,
8688,523,BURLINGTON - PLATTSBURGH,5841,,
8689,523,BURLINGTON - PLATTSBURGH,5842,,
8690,523,BURLINGTON - PLATTSBURGH,5843,,
8691,523,BURLINGTON - PLATTSBURGH,5845,,
8692,523,BURLINGTON - PLATTSBURGH,5846,,
8693,523,BURLINGTON - PLATTSBURGH,5847,,
8694,523,BURLINGTON - PLATTSBURGH,5848,,
8695,523,BURLINGTON - PLATTSBURGH,5849,,
8696,523,BURLINGTON - PLATTSBURGH,5850,,
8697,523,BURLINGTON - PLATTSBURGH,5851,,
8698,523,BURLINGTON - PLATTSBURGH,5853,,
8699,523,BURLINGTON - PLATTSBURGH,5855,,
8700,523,BURLINGTON - PLATTSBURGH,5857,,
8701,523,BURLINGTON - PLATTSBURGH,5858,,
8702,523,BURLINGTON - PLATTSBURGH,5859,,
8703,523,BURLINGTON - PLATTSBURGH,5860,,
8704,523,BURLINGTON - PLATTSBURGH,5861,,
8705,523,BURLINGTON - PLATTSBURGH,5862,,
8706,523,BURLINGTON - PLATTSBURGH,5863,,
8707,523,BURLINGTON - PLATTSBURGH,5866,,
8708,523,BURLINGTON - PLATTSBURGH,5867,,
8709,523,BURLINGTON - PLATTSBURGH,5868,,
8710,523,BURLINGTON - PLATTSBURGH,5871,,
8711,523,BURLINGTON - PLATTSBURGH,5872,,
8712,523,BURLINGTON - PLATTSBURGH,5873,,
8713,523,BURLINGTON - PLATTSBURGH,5874,,
8714,523,BURLINGTON - PLATTSBURGH,5875,,
8715,523,BURLINGTON - PLATTSBURGH,5901,,
8716,523,BURLINGTON - PLATTSBURGH,5902,,
8717,523,BURLINGTON - PLATTSBURGH,5903,,
8718,523,BURLINGTON - PLATTSBURGH,5904,,
8719,523,BURLINGTON - PLATTSBURGH,5905,,
8720,523,BURLINGTON - PLATTSBURGH,5906,,
8721,523,BURLINGTON - PLATTSBURGH,5907,,
13983,543,SPRINGFIELD - HOLYOKE,1001,,
13984,543,SPRINGFIELD - HOLYOKE,1002,,
13985,543,SPRINGFIELD - HOLYOKE,1003,,
13986,543,SPRINGFIELD - HOLYOKE,1004,,
13987,543,SPRINGFIELD - HOLYOKE,1007,,
13988,543,SPRINGFIELD - HOLYOKE,1008,,
13989,543,SPRINGFIELD - HOLYOKE,1009,,
13990,543,SPRINGFIELD - HOLYOKE,1010,,
13991,543,SPRINGFIELD - HOLYOKE,1011,,
13992,543,SPRINGFIELD - HOLYOKE,1012,,
13993,543,SPRINGFIELD - HOLYOKE,1013,,
13994,543,SPRINGFIELD - HOLYOKE,1014,,
13995,543,SPRINGFIELD - HOLYOKE,1020,,
13996,543,SPRINGFIELD - HOLYOKE,1021,,
13997,543,SPRINGFIELD - HOLYOKE,1022,,
13998,543,SPRINGFIELD - HOLYOKE,1026,,
13999,543,SPRINGFIELD - HOLYOKE,1027,,
14000,543,SPRINGFIELD - HOLYOKE,1028,,
14001,543,SPRINGFIELD - HOLYOKE,1030,,
14002,543,SPRINGFIELD - HOLYOKE,1032,,
14003,543,SPRINGFIELD - HOLYOKE,1033,,
14004,543,SPRINGFIELD - HOLYOKE,1034,,
14005,543,SPRINGFIELD - HOLYOKE,1035,,
14006,543,SPRINGFIELD - HOLYOKE,1036,,
14007,543,SPRINGFIELD - HOLYOKE,1038,,
14008,543,SPRINGFIELD - HOLYOKE,1039,,
14009,543,SPRINGFIELD - HOLYOKE,1040,,
14010,543,SPRINGFIELD - HOLYOKE,1041,,
14011,543,SPRINGFIELD - HOLYOKE,1050,,
14012,543,SPRINGFIELD - HOLYOKE,1053,,
14013,543,SPRINGFIELD - HOLYOKE,1054,,
14014,543,SPRINGFIELD - HOLYOKE,1056,,
14015,543,SPRINGFIELD - HOLYOKE,1057,,
14016,543,SPRINGFIELD - HOLYOKE,1059,,
14017,543,SPRINGFIELD - HOLYOKE,1060,,
14018,543,SPRINGFIELD - HOLYOKE,1061,,
14019,543,SPRINGFIELD - HOLYOKE,1062,,
14020,543,SPRINGFIELD - HOLYOKE,1063,,
14021,543,SPRINGFIELD - HOLYOKE,1066,,
14022,543,SPRINGFIELD - HOLYOKE,1069,,
14023,543,SPRINGFIELD - HOLYOKE,1070,,
14024,543,SPRINGFIELD - HOLYOKE,1071,,
14025,543,SPRINGFIELD - HOLYOKE,1072,,
14026,543,SPRINGFIELD - HOLYOKE,1073,,
14027,543,SPRINGFIELD - HOLYOKE,1075,,
14028,543,SPRINGFIELD - HOLYOKE,1077,,
14029,543,SPRINGFIELD - HOLYOKE,1079,,
14030,543,SPRINGFIELD - HOLYOKE,1080,,
14031,543,SPRINGFIELD - HOLYOKE,1081,,
14032,543,SPRINGFIELD - HOLYOKE,1082,,
14033,543,SPRINGFIELD - HOLYOKE,1084,,
14034,543,SPRINGFIELD - HOLYOKE,1085,,
14035,543,SPRINGFIELD - HOLYOKE,1086,,
14036,543,SPRINGFIELD - HOLYOKE,1088,,
14037,543,SPRINGFIELD - HOLYOKE,1089,,
14038,543,SPRINGFIELD - HOLYOKE,1090,,
14039,543,SPRINGFIELD - HOLYOKE,1093,,
14040,543,SPRINGFIELD - HOLYOKE,1095,,
14041,543,SPRINGFIELD - HOLYOKE,1096,,
14042,543,SPRINGFIELD - HOLYOKE,1097,,
14043,543,SPRINGFIELD - HOLYOKE,1098,,
14044,543,SPRINGFIELD - HOLYOKE,1101,,
14045,543,SPRINGFIELD - HOLYOKE,1102,,
14046,543,SPRINGFIELD - HOLYOKE,1103,,
14047,543,SPRINGFIELD - HOLYOKE,1104,,
14048,543,SPRINGFIELD - HOLYOKE,1105,,
14049,543,SPRINGFIELD - HOLYOKE,1106,,
14050,543,SPRINGFIELD - HOLYOKE,1107,,
14051,543,SPRINGFIELD - HOLYOKE,1108,,
14052,543,SPRINGFIELD - HOLYOKE,1109,,
14053,543,SPRINGFIELD - HOLYOKE,1111,,
14054,543,SPRINGFIELD - HOLYOKE,1115,,
14055,543,SPRINGFIELD - HOLYOKE,1116,,
14056,543,SPRINGFIELD - HOLYOKE,1118,,
14057,543,SPRINGFIELD - HOLYOKE,1119,,
14058,543,SPRINGFIELD - HOLYOKE,1128,,
14059,543,SPRINGFIELD - HOLYOKE,1129,,
14060,543,SPRINGFIELD - HOLYOKE,1133,,
14061,543,SPRINGFIELD - HOLYOKE,1138,,
14062,543,SPRINGFIELD - HOLYOKE,1139,,
14063,543,SPRINGFIELD - HOLYOKE,1144,,
14064,543,SPRINGFIELD - HOLYOKE,1151,,
14065,543,SPRINGFIELD - HOLYOKE,1152,,
14066,543,SPRINGFIELD - HOLYOKE,1195,,
14067,543,SPRINGFIELD - HOLYOKE,1199,,
14068,543,SPRINGFIELD - HOLYOKE,1243,,
14069,543,SPRINGFIELD - HOLYOKE,1301,,
14070,543,SPRINGFIELD - HOLYOKE,1302,,
14071,543,SPRINGFIELD - HOLYOKE,1330,,
14072,543,SPRINGFIELD - HOLYOKE,1337,,
14073,543,SPRINGFIELD - HOLYOKE,1338,,
14074,543,SPRINGFIELD - HOLYOKE,1339,,
14075,543,SPRINGFIELD - HOLYOKE,1340,,
14076,543,SPRINGFIELD - HOLYOKE,1341,,
14077,543,SPRINGFIELD - HOLYOKE,1342,,
14078,543,SPRINGFIELD - HOLYOKE,1344,,
14079,543,SPRINGFIELD - HOLYOKE,1346,,
14080,543,SPRINGFIELD - HOLYOKE,1347,,
14081,543,SPRINGFIELD - HOLYOKE,1349,,
14082,543,SPRINGFIELD - HOLYOKE,1350,,
14083,543,SPRINGFIELD - HOLYOKE,1351,,
14084,543,SPRINGFIELD - HOLYOKE,1354,,
14085,543,SPRINGFIELD - HOLYOKE,1355,,
14086,543,SPRINGFIELD - HOLYOKE,1360,,
14087,543,SPRINGFIELD - HOLYOKE,1364,,
14088,543,SPRINGFIELD - HOLYOKE,1367,,
14089,543,SPRINGFIELD - HOLYOKE,1370,,
14090,543,SPRINGFIELD - HOLYOKE,1373,,
14091,543,SPRINGFIELD - HOLYOKE,1375,,
14092,543,SPRINGFIELD - HOLYOKE,1376,,
14093,543,SPRINGFIELD - HOLYOKE,1378,,
14094,543,SPRINGFIELD - HOLYOKE,1379,,
14095,543,SPRINGFIELD - HOLYOKE,1380,,
14096,543,SPRINGFIELD - HOLYOKE,1521,,
14368,610,ROCKFORD,61058,,
14667,564,CHARLESTON - HUNTINGTON,25697,,
15202,537,BANGOR,4354,,
15203,537,BANGOR,4401,,
15204,537,BANGOR,4402,,
15205,537,BANGOR,4406,,
15206,537,BANGOR,4408,,
15207,537,BANGOR,4410,,
15208,537,BANGOR,4411,,
15209,537,BANGOR,4412,,
15210,537,BANGOR,4413,,
15211,537,BANGOR,4414,,
15212,537,BANGOR,4415,,
15213,537,BANGOR,4416,,
15214,537,BANGOR,4417,,
15215,537,BANGOR,4418,,
15216,537,BANGOR,4419,,
15217,537,BANGOR,4420,,
15218,537,BANGOR,4421,,
15219,537,BANGOR,4422,,
15220,537,BANGOR,4424,,
15221,537,BANGOR,4426,,
15222,537,BANGOR,4427,,
15223,537,BANGOR,4428,,
15224,537,BANGOR,4429,,
15225,537,BANGOR,4430,,
15226,537,BANGOR,4431,,
15227,537,BANGOR,4434,,
15228,537,BANGOR,4435,,
15229,537,BANGOR,4438,,
15230,537,BANGOR,4441,,
15231,537,BANGOR,4442,,
15232,537,BANGOR,4443,,
15233,537,BANGOR,4444,,
15234,537,BANGOR,4448,,
15235,537,BANGOR,4449,,
15236,537,BANGOR,4450,,
15237,537,BANGOR,4451,,
15238,537,BANGOR,4453,,
15239,537,BANGOR,4454,,
15240,537,BANGOR,4455,,
15241,537,BANGOR,4456,,
15242,537,BANGOR,4457,,
15243,537,BANGOR,4459,,
15244,537,BANGOR,4460,,
15245,537,BANGOR,4461,,
15246,537,BANGOR,4462,,
15247,537,BANGOR,4463,,
15248,537,BANGOR,4464,,
15249,537,BANGOR,4467,,
15250,537,BANGOR,4468,,
15251,537,BANGOR,4469,,
15252,537,BANGOR,4472,,
15253,537,BANGOR,4473,,
15254,537,BANGOR,4474,,
15255,537,BANGOR,4475,,
15256,537,BANGOR,4476,,
15257,537,BANGOR,4478,,
15258,537,BANGOR,4479,,
15259,537,BANGOR,4481,,
15260,537,BANGOR,4485,,
15261,537,BANGOR,4487,,
15262,537,BANGOR,4488,,
15263,537,BANGOR,4489,,
15264,537,BANGOR,4490,,
15265,537,BANGOR,4491,,
15266,537,BANGOR,4492,,
15267,537,BANGOR,4493,,
15268,537,BANGOR,4495,,
15269,537,BANGOR,4496,,
15270,537,BANGOR,4605,,
15271,537,BANGOR,4606,,
15272,537,BANGOR,4607,,
15273,537,BANGOR,4609,,
15274,537,BANGOR,4611,,
15275,537,BANGOR,4612,,
15276,537,BANGOR,4613,,
15277,537,BANGOR,4614,,
15278,537,BANGOR,4616,,
15279,537,BANGOR,4617,,
15280,537,BANGOR,4619,,
15281,537,BANGOR,4622,,
15282,537,BANGOR,4623,,
15283,537,BANGOR,4624,,
15284,537,BANGOR,4625,,
15285,537,BANGOR,4626,,
15286,537,BANGOR,4627,,
15287,537,BANGOR,4628,,
15288,537,BANGOR,4629,,
15289,537,BANGOR,4630,,
15290,537,BANGOR,4631,,
15291,537,BANGOR,4634,,
15292,537,BANGOR,4635,,
15293,537,BANGOR,4637,,
15294,537,BANGOR,4640,,
15295,537,BANGOR,4642,,
15296,537,BANGOR,4643,,
15297,537,BANGOR,4644,,
15298,537,BANGOR,4646,,
15299,537,BANGOR,4648,,
15300,537,BANGOR,4649,,
15301,537,BANGOR,4650,,
15302,537,BANGOR,4652,,
15303,537,BANGOR,4653,,
15304,537,BANGOR,4654,,
15305,537,BANGOR,4655,,
15306,537,BANGOR,4657,,
15307,537,BANGOR,4658,,
15308,537,BANGOR,4660,,
15309,537,BANGOR,4662,,
15310,537,BANGOR,4664,,
15311,537,BANGOR,4666,,
15312,537,BANGOR,4667,,
15313,537,BANGOR,4668,,
15314,537,BANGOR,4669,,
15315,537,BANGOR,4671,,
15316,537,BANGOR,4672,,
15317,537,BANGOR,4673,,
15318,537,BANGOR,4674,,
15319,537,BANGOR,4675,,
15320,537,BANGOR,4676,,
15321,537,BANGOR,4677,,
15322,537,BANGOR,4679,,
15323,537,BANGOR,4680,,
15324,537,BANGOR,4681,,
15325,537,BANGOR,4683,,
15326,537,BANGOR,4684,,
15327,537,BANGOR,4685,,
15328,537,BANGOR,4686,,
15329,537,BANGOR,4691,,
15330,537,BANGOR,4693,,
15331,537,BANGOR,4694,,
15332,537,BANGOR,4765,,
15333,537,BANGOR,4777,,
15334,537,BANGOR,4848,,
15335,537,BANGOR,4849,,
15336,537,BANGOR,4850,,
15337,537,BANGOR,4911,,
15338,537,BANGOR,4912,,
15339,537,BANGOR,4915,,
15340,537,BANGOR,4920,,
15341,537,BANGOR,4921,,
15342,537,BANGOR,4922,,
15343,537,BANGOR,4923,,
15344,537,BANGOR,4924,,
15345,537,BANGOR,4925,,
15346,537,BANGOR,4928,,
15347,537,BANGOR,4929,,
15348,537,BANGOR,4930,,
15349,537,BANGOR,4932,,
15350,537,BANGOR,4933,,
15351,537,BANGOR,4937,,
15352,537,BANGOR,4939,,
15353,537,BANGOR,4941,,
15354,537,BANGOR,4942,,
15355,537,BANGOR,4943,,
15356,537,BANGOR,4944,,
15357,537,BANGOR,4945,,
15358,537,BANGOR,4949,,
15359,537,BANGOR,4950,,
15360,537,BANGOR,4951,,
15361,537,BANGOR,4952,,
15362,537,BANGOR,4953,,
15363,537,BANGOR,4954,,
15364,537,BANGOR,4957,,
15365,537,BANGOR,4958,,
15366,537,BANGOR,4961,,
15367,537,BANGOR,4965,,
15368,537,BANGOR,4967,,
15369,537,BANGOR,4969,,
15370,537,BANGOR,4971,,
15371,537,BANGOR,4972,,
15372,537,BANGOR,4973,,
15373,537,BANGOR,4974,,
15374,537,BANGOR,4975,,
15375,537,BANGOR,4976,,
15376,537,BANGOR,4978,,
15377,537,BANGOR,4979,,
15378,537,BANGOR,4981,,
15379,537,BANGOR,4985,,
15380,537,BANGOR,4986,,
15381,537,BANGOR,4987,,
15382,537,BANGOR,4988,,
16022,581,TERRE HAUTE,47813,,
16023,581,TERRE HAUTE,47814,,
16436,554,WHEELING - STEUBENVILLE,26186,,
